GSLV R/B                
1 54149U 22138AN  26061.76770190  .00004840  00000+0  41951-3 0  9999
2 54149  87.3884 168.6784 0021983 170.7176 189.4466 14.96712862182897
XRISM                   
1 57800U 23137A   26061.83857387  .00007710  00000+0  43942-3 0  9999
2 57800  31.0033 327.9739 0008219 329.5006  30.5154 15.11403909136750
ACS3                    
1 59588U 24077B   26061.80074936  .00019327  00000+0  15684-1 0  9993
2 59588  97.2116   4.4609 0054705  95.2616 265.4793 13.89238489 93245
SZ-21 MODULE            
1 66515U 25246C   26061.55898934  .00039531  00000+0  34908-3 0  9995
2 66515  41.4734 247.2373 0001469 286.7563  73.3117 15.67907744 16956
