CCSDS_OMM_VERS = 2.0
CREATION_DATE  = 
ORIGINATOR     = 

OBJECT_NAME    = GSLV R/B
OBJECT_ID      = 2022-138AN
CENTER_NAME    = EARTH
REF_FRAME      = TEME
TIME_SYSTEM    = UTC
MEAN_ELEMENT_THEORY = SGP/SGP4

EPOCH          = 2026-03-02T18:25:29.444160
MEAN_MOTION    = 14.96712862
ECCENTRICITY   = .0021983
INCLINATION    = 87.3884
RA_OF_ASC_NODE = 168.6784
ARG_OF_PERICENTER = 170.7176
MEAN_ANOMALY   = 189.4466

EPHEMERIS_TYPE = 0
CLASSIFICATION_TYPE = U
NORAD_CAT_ID   = 54149
ELEMENT_SET_NO = 999
REV_AT_EPOCH   = 18289
BSTAR          = .41951E-3
MEAN_MOTION_DOT = .484E-4
MEAN_MOTION_DDOT = 0

CCSDS_OMM_VERS = 2.0
CREATION_DATE  = 
ORIGINATOR     = 

OBJECT_NAME    = XRISM
OBJECT_ID      = 2023-137A
CENTER_NAME    = EARTH
REF_FRAME      = TEME
TIME_SYSTEM    = UTC
MEAN_ELEMENT_THEORY = SGP/SGP4

EPOCH          = 2026-03-02T20:07:32.782368
MEAN_MOTION    = 15.11403909
ECCENTRICITY   = .0008219
INCLINATION    = 31.0033
RA_OF_ASC_NODE = 327.9739
ARG_OF_PERICENTER = 329.5006
MEAN_ANOMALY   = 30.5154

EPHEMERIS_TYPE = 0
CLASSIFICATION_TYPE = U
NORAD_CAT_ID   = 57800
ELEMENT_SET_NO = 999
REV_AT_EPOCH   = 13675
BSTAR          = .43942E-3
MEAN_MOTION_DOT = .771E-4
MEAN_MOTION_DDOT = 0

CCSDS_OMM_VERS = 2.0
CREATION_DATE  = 
ORIGINATOR     = 

OBJECT_NAME    = ACS3
OBJECT_ID      = 2024-077B
CENTER_NAME    = EARTH
REF_FRAME      = TEME
TIME_SYSTEM    = UTC
MEAN_ELEMENT_THEORY = SGP/SGP4

EPOCH          = 2026-03-02T19:13:04.744704
MEAN_MOTION    = 13.89238489
ECCENTRICITY   = .0054705
INCLINATION    = 97.2116
RA_OF_ASC_NODE = 4.4609
ARG_OF_PERICENTER = 95.2616
MEAN_ANOMALY   = 265.4793

EPHEMERIS_TYPE = 0
CLASSIFICATION_TYPE = U
NORAD_CAT_ID   = 59588
ELEMENT_SET_NO = 999
REV_AT_EPOCH   = 9324
BSTAR          = .15684E-1
MEAN_MOTION_DOT = .19327E-3
MEAN_MOTION_DDOT = 0

CCSDS_OMM_VERS = 2.0
CREATION_DATE  = 
ORIGINATOR     = 

OBJECT_NAME    = SZ-21 MODULE
OBJECT_ID      = 2025-246C
CENTER_NAME    = EARTH
REF_FRAME      = TEME
TIME_SYSTEM    = UTC
MEAN_ELEMENT_THEORY = SGP/SGP4

EPOCH          = 2026-03-02T13:24:56.678976
MEAN_MOTION    = 15.67907744
ECCENTRICITY   = .0001469
INCLINATION    = 41.4734
RA_OF_ASC_NODE = 247.2373
ARG_OF_PERICENTER = 286.7563
MEAN_ANOMALY   = 73.3117

EPHEMERIS_TYPE = 0
CLASSIFICATION_TYPE = U
NORAD_CAT_ID   = 66515
ELEMENT_SET_NO = 999
REV_AT_EPOCH   = 1695
BSTAR          = .34908E-3
MEAN_MOTION_DOT = .39531E-3
MEAN_MOTION_DDOT = 0

